PROBA-1                 
1 26958U 01049B   26196.94285615  .00001034  00000+0  70201-4 0  9999
2 26958  97.9600 206.4811 0055704  27.3831 333.0312 15.07617577347959
CUTE-1 (CO-55)          
1 27844U 03031E   26196.97918347  .00000131  00000+0  75469-4 0  9993
2 27844  98.6744 205.1765 0010840 100.6537 259.5863 14.24351837195771
CUBESAT XI-IV (CO-57)   
1 27848U 03031J   26196.98211364  .00000105  00000+0  65012-4 0  9997
2 27848  98.6774 204.8688 0010566 117.3488 242.8767 14.23634777195474
APRIZESAT 4             
1 35684U 09041D   26196.78036155  .00000351  00000+0  48694-4 0  9992
2 35684  98.1404 272.6697 0042262 227.5897 132.1738 14.83914289915604
APRIZESAT 3             
1 35686U 09041F   26196.92123348  .00000775  00000+0  72038-4 0  9990
2 35686  98.2102 351.5282 0060765 333.5061  26.3056 14.96312251920673
PROBA-2                 
1 36037U 09059B   26196.78224373  .00000063  00000+0  25228-4 0  9993
2 36037  98.2459  19.7399 0013046 186.8895 173.2124 14.54873798885686
APRIZESAT 5             
1 37792U 11044E   26196.78682084  .00000398  00000+0  57681-4 0  9995
2 37792  98.2449 130.6392 0050689 270.7469  88.7935 14.81128199803020
APRIZESAT 6             
1 37793U 11044F   26196.34067692  .00000355  00000+0  57569-4 0  9998
2 37793  98.2338 107.4128 0043042 357.8013 119.3307 14.76956881801308
PROBA-V                 
1 39159U 13021A   26196.93582777  .00000014  00000+0  24298-4 0  9999
2 39159  98.3606 174.1262 0005230  58.2568 301.9121 14.23603473685209
APRIZESAT 7             
1 39416U 13066A   26196.86594191  .00000527  00000+0  57497-4 0  9995
2 39416  97.7723 149.6767 0037251 115.1725 245.3365 14.91619931685506
APRIZESAT 8             
1 39425U 13066K   26196.86164187  .00000361  00000+0  45114-4 0  9992
2 39425  97.8230 143.9322 0045545 189.6765 170.3579 14.87697038683937
BUGSAT-1 (TITA)         
1 40014U 14033E   26196.95109495  .00001491  00000+0  81084-4 0  9995
2 40014  98.0434 291.1878 0028994  83.3097 277.1433 15.15881160660192
SAUDISAT 4              
1 40016U 14033G   26196.92864118  .00000220  00000+0  35911-4 0  9991
2 40016  97.7618 342.0754 0044194 341.6649  18.2968 14.79575989650325
APRIZESAT 9             
1 40018U 14033J   26196.91802443  .00000310  00000+0  52884-4 0  9993
2 40018  97.9095 329.4198 0067458 107.6620 253.1969 14.74253154647796
APRIZESAT 10            
1 40019U 14033K   26196.90212779  .00000283  00000+0  52285-4 0  9994
2 40019  97.9682 323.2263 0078787 181.0864 179.0184 14.70911386646470
TECHDEMOSAT-1 (TDS-1)   
1 40076U 14037H   26196.91763286  .00004029  00000+0  22815-3 0  9993
2 40076  98.3826 191.9890 0006969 156.3514 203.8036 15.13685660652575
TECHNOSAT               
1 42829U 17042E   26196.97085166  .00001609  00000+0  11691-3 0  9991
2 42829  97.4318 353.5406 0017356   1.0306 359.0953 15.05113833491038
FLYING LAPTOP           
1 42831U 17042G   26196.97986799  .00001986  00000+0  15820-3 0  9992
2 42831  97.4805 351.4297 0019668  30.0064 330.2284 15.01316232490770
HAWK-A                  
1 43765U 18099H   26196.10718699  .00004044  00000+0  16247-3 0  9991
2 43765  97.3897 247.9822 0034714 184.2471 175.8478 15.24964443417352
HAWK-B                  
1 43794U 18099AN  26196.09655298  .00003480  00000+0  14860-3 0  9998
2 43794  97.3948 247.3278 0031352 202.4031 157.5838 15.23114243417283
HAWK-C                  
1 43799U 18099AT  26196.93653104  .00004732  00000+0  16932-3 0  9993
2 43799  97.3872 249.8562 0040381 181.1971 178.9179 15.28497622418304
SALSAT                  
1 46495U 20068K   26196.92204374  .00003996  00000+0  13964-3 0  9991
2 46495  97.8855 201.7454 0009261 190.1996 169.9057 15.30178067319758
HAWK-2C                 
1 47502U 21006CT  26196.70812346  .00003875  00000+0  11634-3 0  9992
2 47502  97.2264 240.4527 0008660  99.2843 260.9380 15.34993459303870
HAWK-2A                 
1 47505U 21006CW  26196.84071628  .00004973  00000+0  14859-3 0  9992
2 47505  97.2304 241.2772 0008210 102.4445 257.7718 15.35014526303896
HAWK-2B                 
1 47508U 21006CZ  26196.50827137  .00004497  00000+0  13402-3 0  9996
2 47508  97.2176 239.2384 0008754 101.6650 258.5577 15.35139410303841
HAWK-3B                 
1 48931U 21059BE  26196.54584909  .00033868  00000+0  26118-3 0  9998
2 48931  97.6631  35.9858 0004548 196.9727 163.1384 15.71890222282307
HAWK-3C                 
1 48948U 21059BX  26196.86383115  .00033494  00000+0  25811-3 0  9991
2 48948  97.6745  42.0695 0004709 196.1704 163.9409 15.71908500282355
HAWK-3A                 
1 48957U 21059CG  26196.80005911  .00034148  00000+0  26313-3 0  9995
2 48957  97.6690  39.1813 0004656 198.8090 161.3001 15.71906504282342
HAWK-5C                 
1 52754U 22057Y   26196.93102429  .00011472  00000+0  19006-3 0  9996
2 52754  97.6616 358.4771 0002730 343.5481  16.5682 15.52341704230808
HAWK-5B                 
1 52756U 22057AA  26196.93084180  .00011066  00000+0  18340-3 0  9990
2 52756  97.6629 356.8306 0003403 329.0972  31.0079 15.52338181230809
